[{"OBJECT_NAME":"ONEWEB-0721","OBJECT_ID":"2023-068R","EPOCH":"2025-10-15T14:35:00.570336","MEAN_MOTION":13.22448267,"ECCENTRICITY":0.00015988,"INCLINATION":86.6845,"RA_OF_ASC_NODE":163.5117,"ARG_OF_PERICENTER":75.5405,"MEAN_ANOMALY":284.5906,"EPHEMERIS_TYPE":0,"CLASSIFICATION_TYPE":"U","NORAD_CAT_ID":56725,"ELEMENT_SET_NO":999,"REV_AT_EPOCH":12561,"BSTAR":0.00045644939,"MEAN_MOTION_DOT":2.05e-6,"MEAN_MOTION_DDOT":0},{"OBJECT_NAME":"ONEWEB-0015","OBJECT_ID":"2024-188A","EPOCH":"2025-10-15T11:21:18.461376","MEAN_MOTION":13.11415728,"ECCENTRICITY":0.00014377,"INCLINATION":87.8817,"RA_OF_ASC_NODE":69.8374,"ARG_OF_PERICENTER":74.1835,"MEAN_ANOMALY":285.9451,"EPHEMERIS_TYPE":0,"CLASSIFICATION_TYPE":"U","NORAD_CAT_ID":61594,"ELEMENT_SET_NO":999,"REV_AT_EPOCH":5238,"BSTAR":0.0010127904,"MEAN_MOTION_DOT":3.72e-6,"MEAN_MOTION_DDOT":0},{"OBJECT_NAME":"ONEWEB-0687","OBJECT_ID":"2024-188B","EPOCH":"2025-10-15T15:22:09.623424","MEAN_MOTION":13.17651439,"ECCENTRICITY":0.00020319,"INCLINATION":87.9089,"RA_OF_ASC_NODE":54.5352,"ARG_OF_PERICENTER":82.0521,"MEAN_ANOMALY":278.0841,"EPHEMERIS_TYPE":0,"CLASSIFICATION_TYPE":"U","NORAD_CAT_ID":61595,"ELEMENT_SET_NO":999,"REV_AT_EPOCH":5369,"BSTAR":0.00027187149,"MEAN_MOTION_DOT":1.18e-6,"MEAN_MOTION_DDOT":0},{"OBJECT_NAME":"ONEWEB-0688","OBJECT_ID":"2024-188C","EPOCH":"2025-10-15T14:14:06.926208","MEAN_MOTION":13.17650499,"ECCENTRICITY":0.00014736,"INCLINATION":87.9093,"RA_OF_ASC_NODE":54.5449,"ARG_OF_PERICENTER":51.8777,"MEAN_ANOMALY":308.2487,"EPHEMERIS_TYPE":0,"CLASSIFICATION_TYPE":"U","NORAD_CAT_ID":61596,"ELEMENT_SET_NO":999,"REV_AT_EPOCH":5368,"BSTAR":-0.0002003221,"MEAN_MOTION_DOT":-6.5e-7,"MEAN_MOTION_DDOT":0},{"OBJECT_NAME":"ONEWEB-0689","OBJECT_ID":"2024-188D","EPOCH":"2025-10-15T15:49:51.719232","MEAN_MOTION":13.11417367,"ECCENTRICITY":0.00019297,"INCLINATION":87.8796,"RA_OF_ASC_NODE":69.7445,"ARG_OF_PERICENTER":89.8018,"MEAN_ANOMALY":270.3331,"EPHEMERIS_TYPE":0,"CLASSIFICATION_TYPE":"U","NORAD_CAT_ID":61597,"ELEMENT_SET_NO":999,"REV_AT_EPOCH":5240,"BSTAR":-0.0012302407,"MEAN_MOTION_DOT":-4.23e-6,"MEAN_MOTION_DDOT":0},{"OBJECT_NAME":"ONEWEB-0690","OBJECT_ID":"2024-188E","EPOCH":"2025-10-15T10:34:54.525504","MEAN_MOTION":13.11420222,"ECCENTRICITY":0.0001275,"INCLINATION":87.8836,"RA_OF_ASC_NODE":69.7828,"ARG_OF_PERICENTER":122.0945,"MEAN_ANOMALY":238.0307,"EPHEMERIS_TYPE":0,"CLASSIFICATION_TYPE":"U","NORAD_CAT_ID":61598,"ELEMENT_SET_NO":999,"REV_AT_EPOCH":5255,"BSTAR":-0.00023310526,"MEAN_MOTION_DOT":-7.0e-7,"MEAN_MOTION_DDOT":0},{"OBJECT_NAME":"ONEWEB-0691","OBJECT_ID":"2024-188F","EPOCH":"2025-10-15T15:57:11.441664","MEAN_MOTION":13.11418117,"ECCENTRICITY":0.00013783,"INCLINATION":87.8765,"RA_OF_ASC_NODE":69.67,"ARG_OF_PERICENTER":82.5086,"MEAN_ANOMALY":277.6199,"EPHEMERIS_TYPE":0,"CLASSIFICATION_TYPE":"U","NORAD_CAT_ID":61599,"ELEMENT_SET_NO":999,"REV_AT_EPOCH":5243,"BSTAR":-0.00099268999,"MEAN_MOTION_DOT":-3.39e-6,"MEAN_MOTION_DDOT":0},{"OBJECT_NAME":"ONEWEB-0692","OBJECT_ID":"2024-188G","EPOCH":"2025-10-15T10:56:53.213280","MEAN_MOTION":13.11419891,"ECCENTRICITY":0.00025515,"INCLINATION":87.881,"RA_OF_ASC_NODE":69.8371,"ARG_OF_PERICENTER":106.2736,"MEAN_ANOMALY":253.8673,"EPHEMERIS_TYPE":0,"CLASSIFICATION_TYPE":"U","NORAD_CAT_ID":61600,"ELEMENT_SET_NO":999,"REV_AT_EPOCH":5239,"BSTAR":0.0013072346,"MEAN_MOTION_DOT":4.76e-6,"MEAN_MOTION_DDOT":0},{"OBJECT_NAME":"ONEWEB-0693","OBJECT_ID":"2024-188H","EPOCH":"2025-10-15T09:03:03.223296","MEAN_MOTION":13.176471,"ECCENTRICITY":0.00010361,"INCLINATION":87.9094,"RA_OF_ASC_NODE":54.6065,"ARG_OF_PERICENTER":120.7618,"MEAN_ANOMALY":239.3615,"EPHEMERIS_TYPE":0,"CLASSIFICATION_TYPE":"U","NORAD_CAT_ID":61601,"ELEMENT_SET_NO":999,"REV_AT_EPOCH":5364,"BSTAR":5.1909526e-5,"MEAN_MOTION_DOT":3.3e-7,"MEAN_MOTION_DDOT":0},{"OBJECT_NAME":"ONEWEB-0695","OBJECT_ID":"2024-188J","EPOCH":"2025-10-15T15:52:18.238944","MEAN_MOTION":13.11417735,"ECCENTRICITY":0.000223,"INCLINATION":87.8813,"RA_OF_ASC_NODE":69.7839,"ARG_OF_PERICENTER":93.5948,"MEAN_ANOMALY":266.5435,"EPHEMERIS_TYPE":0,"CLASSIFICATION_TYPE":"U","NORAD_CAT_ID":61602,"ELEMENT_SET_NO":999,"REV_AT_EPOCH":5241,"BSTAR":-0.0012088706,"MEAN_MOTION_DOT":-4.16e-6,"MEAN_MOTION_DDOT":0},{"OBJECT_NAME":"ONEWEB-0697","OBJECT_ID":"2024-188K","EPOCH":"2025-10-15T11:09:06.640416","MEAN_MOTION":13.11416433,"ECCENTRICITY":0.00024137,"INCLINATION":87.8811,"RA_OF_ASC_NODE":69.8139,"ARG_OF_PERICENTER":107.1317,"MEAN_ANOMALY":253.0076,"EPHEMERIS_TYPE":0,"CLASSIFICATION_TYPE":"U","NORAD_CAT_ID":61603,"ELEMENT_SET_NO":999,"REV_AT_EPOCH":5237,"BSTAR":0.0014253222,"MEAN_MOTION_DOT":5.18e-6,"MEAN_MOTION_DDOT":0},{"OBJECT_NAME":"ONEWEB-0698","OBJECT_ID":"2024-188L","EPOCH":"2025-10-15T10:37:21.292320","MEAN_MOTION":13.11419201,"ECCENTRICITY":0.00021917,"INCLINATION":87.8814,"RA_OF_ASC_NODE":69.8328,"ARG_OF_PERICENTER":126.9249,"MEAN_ANOMALY":233.208,"EPHEMERIS_TYPE":0,"CLASSIFICATION_TYPE":"U","NORAD_CAT_ID":61604,"ELEMENT_SET_NO":999,"REV_AT_EPOCH":5239,"BSTAR":-0.00010238139,"MEAN_MOTION_DOT":-2.4e-7,"MEAN_MOTION_DDOT":0},{"OBJECT_NAME":"ONEWEB-0699","OBJECT_ID":"2024-188M","EPOCH":"2025-10-15T11:45:13.139424","MEAN_MOTION":13.10376246,"ECCENTRICITY":0.00021936,"INCLINATION":87.8762,"RA_OF_ASC_NODE":85.0395,"ARG_OF_PERICENTER":105.3521,"MEAN_ANOMALY":254.7849,"EPHEMERIS_TYPE":0,"CLASSIFICATION_TYPE":"U","NORAD_CAT_ID":61605,"ELEMENT_SET_NO":999,"REV_AT_EPOCH":5126,"BSTAR":0.00035464865,"MEAN_MOTION_DOT":1.36e-6,"MEAN_MOTION_DDOT":0},{"OBJECT_NAME":"ONEWEB-0700","OBJECT_ID":"2024-188N","EPOCH":"2025-10-15T11:47:35.797920","MEAN_MOTION":13.10375972,"ECCENTRICITY":0.00023977,"INCLINATION":87.8768,"RA_OF_ASC_NODE":84.9215,"ARG_OF_PERICENTER":90.4616,"MEAN_ANOMALY":269.6786,"EPHEMERIS_TYPE":0,"CLASSIFICATION_TYPE":"U","NORAD_CAT_ID":61606,"ELEMENT_SET_NO":999,"REV_AT_EPOCH":5125,"BSTAR":0.00013960861,"MEAN_MOTION_DOT":6.1e-7,"MEAN_MOTION_DDOT":0},{"OBJECT_NAME":"ONEWEB-0701","OBJECT_ID":"2024-188P","EPOCH":"2025-10-15T12:11:31.631136","MEAN_MOTION":13.10371675,"ECCENTRICITY":0.00023721,"INCLINATION":87.8754,"RA_OF_ASC_NODE":85.0385,"ARG_OF_PERICENTER":106.5097,"MEAN_ANOMALY":253.6292,"EPHEMERIS_TYPE":0,"CLASSIFICATION_TYPE":"U","NORAD_CAT_ID":61607,"ELEMENT_SET_NO":999,"REV_AT_EPOCH":5126,"BSTAR":0.0018297369,"MEAN_MOTION_DOT":6.51e-6,"MEAN_MOTION_DDOT":0},{"OBJECT_NAME":"ONEWEB-0702","OBJECT_ID":"2024-188Q","EPOCH":"2025-10-15T15:23:00.945888","MEAN_MOTION":13.11416219,"ECCENTRICITY":0.00025681,"INCLINATION":87.8763,"RA_OF_ASC_NODE":69.7044,"ARG_OF_PERICENTER":102.424,"MEAN_ANOMALY":257.7175,"EPHEMERIS_TYPE":0,"CLASSIFICATION_TYPE":"U","NORAD_CAT_ID":61608,"ELEMENT_SET_NO":999,"REV_AT_EPOCH":5243,"BSTAR":-0.0003849083,"MEAN_MOTION_DOT":-1.24e-6,"MEAN_MOTION_DDOT":0},{"OBJECT_NAME":"ONEWEB-0704","OBJECT_ID":"2024-188R","EPOCH":"2025-10-15T11:54:47.606976","MEAN_MOTION":13.10375031,"ECCENTRICITY":0.00025999,"INCLINATION":87.8775,"RA_OF_ASC_NODE":84.9979,"ARG_OF_PERICENTER":97.6235,"MEAN_ANOMALY":262.5187,"EPHEMERIS_TYPE":0,"CLASSIFICATION_TYPE":"U","NORAD_CAT_ID":61609,"ELEMENT_SET_NO":999,"REV_AT_EPOCH":5124,"BSTAR":0.0015063777,"MEAN_MOTION_DOT":5.39e-6,"MEAN_MOTION_DDOT":0}]
